H1 CPF 01  gfz 2021 02 06 13  5372 terrasarx 
H2 0702601  6201 31698    2021 02 06 12 59 42 2021 02 11 00 00 42   120 1 1  0 0 0
H9
10 0 59253  72702.000000  0   -5243013.007   2815969.918   3460143.935
10 0 59253  72822.000000  0   -5504551.314   3174475.522   2651949.191
10 0 59253  72942.000000  0   -5664007.341   3481152.481   1797046.010
10 0 59253  73062.000000  0   -5719564.754   3728836.503    910491.688
10 0 59253  73182.000000  0   -5671358.613   3911392.307      7902.925
10 0 59253  73302.000000  0   -5521454.387   4023857.062   -894827.050
10 0 59253  73422.000000  0   -5273788.480   4062561.201  -1781817.323
10 0 59253  73542.000000  0   -4934070.276   4025222.819  -2637488.635
10 0 59253  73662.000000  0   -4509647.929   3911012.308  -3446843.697
10 0 59253  73782.000000  0   -4009343.610   3720586.806  -4195733.101
10 0 59253  73902.000000  0   -3443263.148   3456094.800  -4871100.999
10 0 59253  74022.000000  0   -2822585.060   3121150.970  -5461206.928
10 0 59253  74142.000000  0   -2159336.227   2720783.430  -5955821.120
10 0 59253  74262.000000  0   -1466155.808   2261354.026  -6346392.671
10 0 59253  74382.000000  0    -756053.459   1750452.854  -6626185.293
10 0 59253  74502.000000  0     -42167.987   1196771.484  -6790382.201
10 0 59253  74622.000000  0     662470.492    609955.672  -6836159.778
10 0 59253  74742.000000  0    1345172.588       440.717  -6762732.443
10 0 59253  74862.000000  0    1993813.828   -620730.601  -6571363.987
10 0 59253  74982.000000  0    2597044.435  -1242102.811  -6265347.539
10 0 59253  75102.000000  0    3144485.085  -1852013.689  -5849955.120
10 0 59253  75222.000000  0    3626904.568  -2438807.831  -5332356.819
10 0 59253  75342.000000  0    4036379.280  -2991057.987  -4721509.065
10 0 59253  75462.000000  0    4366427.530  -3497787.922  -4028009.063
10 0 59253  75582.000000  0    4612117.290  -3948691.190  -3263921.049
10 0 59253  75702.000000  0    4770147.144  -4334343.650  -2442574.718
10 0 59253  75822.000000  0    4838896.241  -4646403.958  -1578336.665
10 0 59253  75942.000000  0    4818441.701  -4877797.561   -686359.497
10 0 59253  76062.000000  0    4710540.984  -5022878.630    217687.947
10 0 59253  76182.000000  0    4518580.030  -5077564.566   1117902.428
10 0 59253  76302.000000  0    4247488.746  -5039440.001   1998435.093
10 0 59253  76422.000000  0    3903623.734  -4907826.538   2843779.232
10 0 59253  76542.000000  0    3494624.019  -4683818.262   3639050.892
10 0 59253  76662.000000  0    3029241.705  -4370280.494   4370257.288
10 0 59253  76782.000000  0    2517152.939  -3971812.339   5024546.218
10 0 59253  76902.000000  0    1968754.078  -3494674.844   5590432.136
10 0 59253  77022.000000  0    1394947.545  -2946686.739   6057995.887
10 0 59253  77142.000000  0     806922.217  -2337089.636   6419053.361
10 0 59253  77262.000000  0     215933.648  -1676387.610   6667292.271
10 0 59253  77382.000000  0    -366911.456   -976163.441   6798376.126
10 0 59253  77502.000000  0    -930862.792   -248873.667   6810015.884
10 0 59253  77622.000000  0   -1465723.800    492373.312   6702007.140
10 0 59253  77742.000000  0   -1962035.428   1234052.942   6476233.364
10 0 59253  77862.000000  0   -2411243.406   1962470.272   6136635.138
10 0 59253  77982.000000  0   -2805846.571   2664012.255   5689145.796
10 0 59253  78102.000000  0   -3139524.075   3325403.329   5141594.184
10 0 59253  78222.000000  0   -3407240.230   3933959.311   4503574.123
10 0 59253  78342.000000  0   -3605323.701   4477835.576   3786281.730
10 0 59253  78462.000000  0   -3731519.421   4946263.957   3002322.126
10 0 59253  78582.000000  0   -3785011.738   5329772.967   2165487.935
10 0 59253  78702.000000  0   -3766417.527   5620384.499   1290513.413
10 0 59253  78822.000000  0   -3677750.071   5811783.341    392810.796
10 0 59253  78942.000000  0   -3522355.293   5899456.897   -511808.291
10 0 59253  79062.000000  0   -3304819.376   5880797.974  -1407421.813
10 0 59253  79182.000000  0   -3030851.067   5755167.877  -2278288.121
10 0 59253  79302.000000  0   -2707139.737   5523918.046  -3109130.170
10 0 59253  79422.000000  0   -2341197.449   5190373.035  -3885406.610
10 0 59253  79542.000000  0   -1941188.077   4759774.255  -4593567.334
10 0 59253  79662.000000  0   -1515746.919   4239186.493  -5221285.369
10 0 59253  79782.000000  0   -1073797.058   3637373.011  -5757663.930
10 0 59253  79902.000000  0    -624364.501   2964639.941  -6193417.484
10 0 59253  80022.000000  0    -176396.174   2232652.575  -6521021.801
10 0 59253  80142.000000  0     261414.320   1454230.154  -6734831.680
10 0 59253  80262.000000  0     680790.516    643122.165  -6831169.091
10 0 59253  80382.000000  0    1074025.864   -186231.014  -6808379.780
10 0 59253  80502.000000  0    1434121.655  -1018950.563  -6666857.798
10 0 59253  80622.000000  0    1754908.026  -1839979.256  -6409038.050
10 0 59253  80742.000000  0    2031147.944  -2634346.356  -6039359.401
10 0 59253  80862.000000  0    2258622.462  -3387435.299  -5564197.676
10 0 59253  80982.000000  0    2434196.284  -4085252.711  -4991767.167
10 0 59253  81102.000000  0    2555861.362  -4714689.955  -4331987.700
10 0 59253  81222.000000  0    2622757.858  -5263772.195  -3596323.428
10 0 59253  81342.000000  0    2635171.960  -5721894.004  -2797593.490
10 0 59253  81462.000000  0    2594510.639  -6080033.881  -1949754.300
10 0 59253  81582.000000  0    2503253.526  -6330942.973  -1067658.231
10 0 59253  81702.000000  0    2364881.524  -6469301.906   -166790.343
10 0 59253  81822.000000  0    2183783.210  -6491838.926    737009.677
10 0 59253  81942.000000  0    1965142.908  -6397409.243   1627832.800
10 0 59253  82062.000000  0    1714812.304  -6187031.673   2489991.101
10 0 59253  82182.000000  0    1439167.700  -5863879.517   3308302.713
10 0 59253  82302.000000  0    1144958.778  -5433228.960   4068365.627
10 0 59253  82422.000000  0     839151.636  -4902365.855   4756814.756
10 0 59253  82542.000000  0     528770.274  -4280454.914   5361558.804
10 0 59253  82662.000000  0     220739.766  -3578371.502   5871992.156
10 0 59253  82782.000000  0     -78263.516  -2808501.102   6279176.552
10 0 59253  82902.000000  0    -361952.913  -1984513.607   6575990.380
10 0 59253  83022.000000  0    -624560.353  -1121117.374   6757246.718
10 0 59253  83142.000000  0    -860951.286   -233795.030   6819779.704
10 0 59253  83262.000000  0   -1066723.837    661475.217   6762496.974
10 0 59253  83382.000000  0   -1238290.278   1548507.106   6586397.251
10 0 59253  83502.000000  0   -1372939.290   2411198.146   6294553.926
10 0 59253  83622.000000  0   -1468878.945   3233821.802   5892064.947
10 0 59253  83742.000000  0   -1525259.557   4001315.637   5385968.687
10 0 59253  83862.000000  0   -1542175.188   4699560.574   4785127.477
10 0 59253  83982.000000  0   -1520645.182   5315647.609   4100078.401
10 0 59253  84102.000000  0   -1462574.428   5838124.703   3342852.099
10 0 59253  84222.000000  0   -1370694.981   6257218.658   2526763.814
10 0 59253  84342.000000  0   -1248489.544   6565028.446   1666177.885
10 0 59253  84462.000000  0   -1100095.705   6755682.769    776249.998
10 0 59253  84582.000000  0    -930196.081   6825457.505   -127345.997
10 0 59253  84702.000000  0    -743896.508   6772852.546  -1028702.241
10 0 59253  84822.000000  0    -546594.784   6598622.218  -1911968.202
10 0 59253  84942.000000  0    -343844.596   6305757.141  -2761638.058
10 0 59253  85062.000000  0    -141218.584   5899422.702  -3562827.015
10 0 59253  85182.000000  0      55827.114   5386856.921  -4301533.529
10 0 59253  85302.000000  0     242083.706   4777229.356  -4964882.621
10 0 59253  85422.000000  0     412712.703   4081465.159  -5541345.168
10 0 59253  85542.000000  0     563358.179   3312038.865  -6020930.459
10 0 59253  85662.000000  0     690245.439   2482742.447  -6395348.942
10 0 59253  85782.000000  0     790264.910   1608434.077  -6658143.655
10 0 59253  85902.000000  0     861039.996    704772.490  -6804790.849
10 0 59253  86022.000000  0     900977.461   -212060.081  -6832769.851
10 0 59253  86142.000000  0     909300.125  -1125642.488  -6741601.341
10 0 59253  86262.000000  0     886060.973  -2019601.379  -6532852.806
10 0 59253  86382.000000  0     832139.475  -2877895.832  -6210114.789
10 0 59254    102.000000  0     749219.666  -3685100.567  -5778948.376
10 0 59254    222.000000  0     639749.198  -4426682.334  -5246798.206
10 0 59254    342.000000  0     506881.964  -5089262.382  -4622874.625
10 0 59254    462.000000  0     354403.538  -5660863.407  -3918006.076
10 0 59254    582.000000  0     186640.883  -6131135.414  -3144460.559
10 0 59254    702.000000  0       8358.238  -6491554.144  -2315739.148
10 0 59254    822.000000  0    -175358.637  -6735589.059  -1446344.332
10 0 59254    942.000000  0    -359227.624  -6858834.511   -551525.006
10 0 59254   1062.000000  0    -537901.585  -6859099.357    352995.383
10 0 59254   1182.000000  0    -706102.712  -6736453.179   1251301.435
10 0 59254   1302.000000  0    -858756.619  -6493228.202   2127574.276
10 0 59254   1422.000000  0    -991122.495  -6133974.789   2966379.739
10 0 59254   1542.000000  0   -1098915.001  -5665371.647   3752949.235
10 0 59254   1662.000000  0   -1178415.392  -5096092.668   4473445.155
10 0 59254   1782.000000  0   -1226570.185  -4436636.905   5115205.851
10 0 59254   1902.000000  0   -1241073.685  -3699126.236   5666968.378
10 0 59254   2022.000000  0   -1220433.662  -2897072.266   6119064.521
10 0 59254   2142.000000  0   -1164017.302  -2045119.723   6463583.730
10 0 59254   2262.000000  0   -1072077.573  -1158775.167   6694504.320
10 0 59254   2382.000000  0    -945760.862   -254122.491   6807793.801
10 0 59254   2502.000000  0    -787095.219    652469.879   6801474.659
10 0 59254   2622.000000  0    -598957.846   1544644.546   6675657.145
10 0 59254   2742.000000  0    -385022.672   2406349.900   6432537.498
99
